{
  "norad_id": "55131",
  "name": "SHIJIAN-23 (SJ-23)",
  "line1": "1 55131U 23002A   26171.49181124 -.00000272  00000+0  00000+0 0  9999",
  "line2": "2 55131   3.7270  78.2744 0003795 275.1369 238.2597  1.00087098 12546",
  "fetched_at": "2026-06-22T01:52:46.660170+00:00"
}